{"type": "FeatureCollection", "features": [ {"type": "Feature", "properties": {"norad_id": 66634, "name": "STARLINK-35967", "group": "last-30-days", "lat": 37.256013192033116, "lon": 6.533719591124903, "alt_km": 373.10005309629105, "timestamp": "2025-12-05T18:53:12.098040+00:00", "meta": {"OBJECT_NAME": "STARLINK-35967", "OBJECT_ID": "2025-271T", "EPOCH": "2025-12-04T16:17:20.200128", "MEAN_MOTION": 15.74398593, "ECCENTRICITY": 0.003543, "INCLINATION": 53.1568, "RA_OF_ASC_NODE": 226.7021, "ARG_OF_PERICENTER": 33.0196, "MEAN_ANOMALY": 327.3026, "EPHEMERIS_TYPE": 0, "CLASSIFICATION_TYPE": "U", "NORAD_CAT_ID": 66634, "ELEMENT_SET_NO": 999, "REV_AT_EPOCH": 290, "BSTAR": -0.07605, "MEAN_MOTION_DOT": -0.09405874, "MEAN_MOTION_DDOT": 0}, "tle": {"line1": "1 66634U 25271T   25338.67870602 -.09405874  00000+0 -76050-1 0  9996", "line2": "2 66634  53.1568 226.7021 0035430  33.0196 327.3026 15.74398593  2900"}}, "geometry": {"type": "Point", "coordinates": [6.533719591124903, 37.256013192033116]}}, {"type": "Feature", "properties": {"norad_id": 66635, "name": "STARLINK-35955", "group": "last-30-days", "lat": -18.038388052518044, "lon": 55.26258064591443, "alt_km": 320.7577626581369, "timestamp": "2025-12-05T18:53:12.098051+00:00", "meta": {"OBJECT_NAME": "STARLINK-35955", "OBJECT_ID": "2025-271U", "EPOCH": "2025-12-05T04:24:09.717120", "MEAN_MOTION": 15.81245571, "ECCENTRICITY": 0.00114922, "INCLINATION": 53.1523, "RA_OF_ASC_NODE": 224.1641, "ARG_OF_PERICENTER": 344.8155, "MEAN_ANOMALY": 15.2521, "EPHEMERIS_TYPE": 0, "CLASSIFICATION_TYPE": "U", "NORAD_CAT_ID": 66635, "ELEMENT_SET_NO": 999, "REV_AT_EPOCH": 302, "BSTAR": 0.01841904, "MEAN_MOTION_DOT": 0.04351412, "MEAN_MOTION_DDOT": 0}, "tle": {"line1": "1 66635U 25271U   25339.18344580  .04351412  00000+0  18419-1 0  9991", "line2": "2 66635  53.1523 224.1641 0011492 344.8155  15.2521 15.81245571  3024"}}, "geometry": {"type": "Point", "coordinates": [55.26258064591443, -18.038388052518044]}}, {"type": "Feature", "properties": {"norad_id": 66636, "name": "STARLINK-35968", "group": "last-30-days", "lat": -16.699798632808008, "lon": 54.126834428661425, "alt_km": 322.17708337533077, "timestamp": "2025-12-05T18:53:12.098073+00:00", "meta": {"OBJECT_NAME": "STARLINK-35968", "OBJECT_ID": "2025-271V", "EPOCH": "2025-12-05T04:23:30.283296", "MEAN_MOTION": 15.811936, "ECCENTRICITY": 0.00086082, "INCLINATION": 53.1548, "RA_OF_ASC_NODE": 224.1574, "ARG_OF_PERICENTER": 227.9075, "MEAN_ANOMALY": 132.1217, "EPHEMERIS_TYPE": 0, "CLASSIFICATION_TYPE": "U", "NORAD_CAT_ID": 66636, "ELEMENT_SET_NO": 999, "REV_AT_EPOCH": 302, "BSTAR": 0.0039612228, "MEAN_MOTION_DOT": 0.00879132, "MEAN_MOTION_DDOT": 0}, "tle": {"line1": "1 66636U 25271V   25339.18298939  .00879132  00000+0  39612-2 0  9997", "line2": "2 66636  53.1548 224.1574 0008608 227.9075 132.1217 15.81193600  3020"}}, "geometry": {"type": "Point", "coordinates": [54.126834428661425, -16.699798632808008]}}, {"type": "Feature", "properties": {"norad_id": 66637, "name": "STARLINK-35953", "group": "last-30-days", "lat": -51.8128708621608, "lon": 113.4686687948496, "alt_km": 209.12978053303414, "timestamp": "2025-12-05T18:53:12.098086+00:00", "meta": {"OBJECT_NAME": "STARLINK-35953", "OBJECT_ID": "2025-271W", "EPOCH": "2025-12-04T22:18:59.752800", "MEAN_MOTION": 15.86335951, "ECCENTRICITY": 0.0030581, "INCLINATION": 53.1554, "RA_OF_ASC_NODE": 225.4243, "ARG_OF_PERICENTER": 260.8528, "MEAN_ANOMALY": 98.9037, "EPHEMERIS_TYPE": 0, "CLASSIFICATION_TYPE": "U", "NORAD_CAT_ID": 66637, "ELEMENT_SET_NO": 999, "REV_AT_EPOCH": 298, "BSTAR": 0.039237, "MEAN_MOTION_DOT": 0.07541591, "MEAN_MOTION_DDOT": 0.099335}, "tle": {"line1": "1 66637U 25271W   25338.92985825  .07541591  99335-1  39237-1 0  9991", "line2": "2 66637  53.1554 225.4243 0030581 260.8528  98.9037 15.86335951  2984"}}, "geometry": {"type": "Point", "coordinates": [113.4686687948496, -51.8128708621608]}}, {"type": "Feature", "properties": {"norad_id": 66638, "name": "STARLINK-35972", "group": "last-30-days", "lat": -9.304259795632005, "lon": 48.20141277163423, "alt_km": 337.96546765118546, "timestamp": "2025-12-05T18:53:12.098099+00:00", "meta": {"OBJECT_NAME": "STARLINK-35972", "OBJECT_ID": "2025-271X", "EPOCH": "2025-12-05T04:24:01.697472", "MEAN_MOTION": 15.78483302, "ECCENTRICITY": 7.392e-05, "INCLINATION": 53.1548, "RA_OF_ASC_NODE": 224.1592, "ARG_OF_PERICENTER": 112.1161, "MEAN_ANOMALY": 247.994, "EPHEMERIS_TYPE": 0, "CLASSIFICATION_TYPE": "U", "NORAD_CAT_ID": 66638, "ELEMENT_SET_NO": 999, "REV_AT_EPOCH": 302, "BSTAR": -0.0021743728, "MEAN_MOTION_DOT": -0.00369388, "MEAN_MOTION_DDOT": 0}, "tle": {"line1": "1 66638U 25271X   25339.18335298 -.00369388  00000+0 -21744-2 0  9995", "line2": "2 66638  53.1548 224.1592 0000739 112.1161 247.9940 15.78483302  3025"}}, "geometry": {"type": "Point", "coordinates": [48.20141277163423, -9.304259795632005]}}, {"type": "Feature", "properties": {"norad_id": 66639, "name": "STARLINK-35908", "group": "last-30-days", "lat": -39.66099074037345, "lon": 79.49737358941016, "alt_km": 317.30225003783835, "timestamp": "2025-12-05T18:53:12.098109+00:00", "meta": {"OBJECT_NAME": "STARLINK-35908", "OBJECT_ID": "2025-271Y", "EPOCH": "2025-12-04T02:34:25.508352", "MEAN_MOTION": 15.84226755, "ECCENTRICITY": 0.00097052, "INCLINATION": 53.1556, "RA_OF_ASC_NODE": 229.5367, "ARG_OF_PERICENTER": 335.6046, "MEAN_ANOMALY": 24.4518, "EPHEMERIS_TYPE": 0, "CLASSIFICATION_TYPE": "U", "NORAD_CAT_ID": 66639, "ELEMENT_SET_NO": 999, "REV_AT_EPOCH": 285, "BSTAR": 0.0030756132, "MEAN_MOTION_DOT": 0.00777445, "MEAN_MOTION_DDOT": 0}, "tle": {"line1": "1 66639U 25271Y   25338.10723968  .00777445  00000+0  30756-2 0  9990", "line2": "2 66639  53.1556 229.5367 0009705 335.6046  24.4518 15.84226755  2853"}}, "geometry": {"type": "Point", "coordinates": [79.49737358941016, -39.66099074037345]}}, {"type": "Feature", "properties": {"norad_id": 66640, "name": "STARLINK-35921", "group": "last-30-days", "lat": -24.11863971488203, "lon": 60.71998126324628, "alt_km": 330.4692181164937, "timestamp": "2025-12-05T18:53:12.098119+00:00", "meta": {"OBJECT_NAME": "STARLINK-35921", "OBJECT_ID": "2025-271Z", "EPOCH": "2025-12-04T07:07:23.950272", "MEAN_MOTION": 15.81318878, "ECCENTRICITY": 0.0004963, "INCLINATION": 53.1562, "RA_OF_ASC_NODE": 228.5854, "ARG_OF_PERICENTER": 9.2257, "MEAN_ANOMALY": 350.8856, "EPHEMERIS_TYPE": 0, "CLASSIFICATION_TYPE": "U", "NORAD_CAT_ID": 66640, "ELEMENT_SET_NO": 999, "REV_AT_EPOCH": 288, "BSTAR": 0.0015698, "MEAN_MOTION_DOT": 0.00327985, "MEAN_MOTION_DDOT": 0}, "tle": {"line1": "1 66640U 25271Z   25338.29680498  .00327985  00000+0  15698-2 0  9990", "line2": "2 66640  53.1562 228.5854 0004963   9.2257 350.8856 15.81318878  2880"}}, "geometry": {"type": "Point", "coordinates": [60.71998126324628, -24.11863971488203]}}, {"type": "Feature", "properties": {"norad_id": 66641, "name": "STARLINK-35923", "group": "last-30-days", "lat": -32.93361730108439, "lon": 70.1400113875407, "alt_km": 318.6904739311831, "timestamp": "2025-12-05T18:53:12.098129+00:00", "meta": {"OBJECT_NAME": "STARLINK-35923", "OBJECT_ID": "2025-271AA", "EPOCH": "2025-12-05T05:49:45.867936", "MEAN_MOTION": 15.82828724, "ECCENTRICITY": 0.00292539, "INCLINATION": 53.1564, "RA_OF_ASC_NODE": 223.819, "ARG_OF_PERICENTER": 299.3636, "MEAN_ANOMALY": 60.4467, "EPHEMERIS_TYPE": 0, "CLASSIFICATION_TYPE": "U", "NORAD_CAT_ID": 66641, "ELEMENT_SET_NO": 999, "REV_AT_EPOCH": 303, "BSTAR": 0.0053548979, "MEAN_MOTION_DOT": 0.0135013, "MEAN_MOTION_DDOT": 0}, "tle": {"line1": "1 66641U 25271AA  25339.24289199  .01350130  00000+0  53549-2 0  9996", "line2": "2 66641  53.1564 223.8190 0029253 299.3636  60.4467 15.82828724  3033"}}, "geometry": {"type": "Point", "coordinates": [70.1400113875407, -32.93361730108439]}}, {"type": "Feature", "properties": {"norad_id": 66642, "name": "STARLINK-35926", "group": "last-30-days", "lat": -19.29724519966146, "lon": 56.34016460237728, "alt_km": 338.74438735961485, "timestamp": "2025-12-05T18:53:12.098139+00:00", "meta": {"OBJECT_NAME": "STARLINK-35926", "OBJECT_ID": "2025-271AB", "EPOCH": "2025-12-05T04:20:31.083648", "MEAN_MOTION": 15.779, "ECCENTRICITY": 0.0002359, "INCLINATION": 53.1543, "RA_OF_ASC_NODE": 224.1424, "ARG_OF_PERICENTER": 227.7076, "MEAN_ANOMALY": 132.3746, "EPHEMERIS_TYPE": 0, "CLASSIFICATION_TYPE": "U", "NORAD_CAT_ID": 66642, "ELEMENT_SET_NO": 999, "REV_AT_EPOCH": 298, "BSTAR": -0.0013018128, "MEAN_MOTION_DOT": -0.00219523, "MEAN_MOTION_DDOT": 0}, "tle": {"line1": "1 66642U 25271AB  25339.18091532 -.00219523  00000+0 -13018-2 0  9990", "line2": "2 66642  53.1543 224.1424 0002359 227.7076 132.3746 15.77900000  2980"}}, "geometry": {"type": "Point", "coordinates": [56.34016460237728, -19.29724519966146]}}, {"type": "Feature", "properties": {"norad_id": 66643, "name": "STARLINK-35918", "group": "last-30-days", "lat": -30.643903715077332, "lon": 67.46294067816737, "alt_km": 316.6687329651022, "timestamp": "2025-12-05T18:53:12.098151+00:00", "meta": {"OBJECT_NAME": "STARLINK-35918", "OBJECT_ID": "2025-271AC", "EPOCH": "2025-12-04T20:45:01.404576", "MEAN_MOTION": 15.82179053, "ECCENTRICITY": 0.00144, "INCLINATION": 53.1558, "RA_OF_ASC_NODE": 225.7279, "ARG_OF_PERICENTER": 264.2391, "MEAN_ANOMALY": 95.6991, "EPHEMERIS_TYPE": 0, "CLASSIFICATION_TYPE": "U", "NORAD_CAT_ID": 66643, "ELEMENT_SET_NO": 999, "REV_AT_EPOCH": 297, "BSTAR": 0.004581, "MEAN_MOTION_DOT": 0.01071055, "MEAN_MOTION_DDOT": 0}, "tle": {"line1": "1 66643U 25271AC  25338.86459959  .01071055  00000+0  45810-2 0  9996", "line2": "2 66643  53.1558 225.7279 0014400 264.2391  95.6991 15.82179053  2972"}}, "geometry": {"type": "Point", "coordinates": [67.46294067816737, -30.643903715077332]}}]}